[{"OBJECT_NAME":"KENT RIDGE 1","OBJECT_ID":"2015-077B","EPOCH":"2026-03-08T19:37:54.450048","MEAN_MOTION":15.22445677,"ECCENTRICITY":0.00084783,"INCLINATION":14.98,"RA_OF_ASC_NODE":292.0622,"ARG_OF_PERICENTER":264.3564,"MEAN_ANOMALY":95.5791,"EPHEMERIS_TYPE":0,"CLASSIFICATION_TYPE":"U","NORAD_CAT_ID":41167,"ELEMENT_SET_NO":999,"REV_AT_EPOCH":56577,"BSTAR":0.00022960785,"MEAN_MOTION_DOT":6.243e-5,"MEAN_MOTION_DDOT":0},{"OBJECT_NAME":"STARLINK-1557","OBJECT_ID":"2020-055H","EPOCH":"2026-03-10T00:00:02.999808","MEAN_MOTION":15.2035016,"ECCENTRICITY":0.0001718,"INCLINATION":53.1122,"RA_OF_ASC_NODE":124.7429,"ARG_OF_PERICENTER":94.4179,"MEAN_ANOMALY":143.9555,"EPHEMERIS_TYPE":0,"CLASSIFICATION_TYPE":"U","NORAD_CAT_ID":46034,"ELEMENT_SET_NO":999,"REV_AT_EPOCH":578,"BSTAR":0.0055116646,"MEAN_MOTION_DOT":0.00123185,"MEAN_MOTION_DDOT":0}]
